start=new Date('2022-03-28T00:00:00.000Z').valueOf();
sats=[{"CLASSIFICATION_TYPE":"U","ELEMENT_SET_NO":"999","PERIOD":"91.531","MEAN_ELEMENT_THEORY":"SGP4","MEAN_MOTION_DOT":"-0.00037472","PERIAPSIS":"348.907","REF_FRAME":"TEME","RA_OF_ASC_NODE":"329.7011","ECCENTRICITY":"0.00011020","REV_AT_EPOCH":"370","OBJECT_NAME":"STARLINK-3459","INCLINATION":"53.2173","MEAN_MOTION":"15.73239292","GP_ID":"199866031","CENTER_NAME":"EARTH","COUNTRY_CODE":"US","OBJECT_TYPE":"PAYLOAD","LAUNCH_DATE":"2022-02-21","ARG_OF_PERICENTER":"94.8036","FILE":"3377053","OBJECT_ID":"2022-016AV","NORAD_CAT_ID":"51757","TIME_SYSTEM":"UTC","RCS_SIZE":"LARGE","EPOCH":"2022-03-27T22:00:01.999584","EPHEMERIS_TYPE":"0","APOAPSIS":"350.390","SITE":"AFETR","MEAN_MOTION_DDOT":"0.0000000000000","TLE_LINE1":"1 51757U 22016AV  22086.91668981 -.00037472  00000-0 -26332-3 0  9996","TLE_LINE2":"2 51757  53.2173 329.7011 0001102  94.8036 146.5130 15.73239292  3708","MEAN_ANOMALY":"146.5130","SEMIMAJOR_AXIS":"6727.783","BSTAR":"-0.00026332000000","DECAY_DATE":null},{"APOAPSIS":"350.249","SITE":"AFETR","EPHEMERIS_TYPE":"0","BSTAR":"-0.00032052000000","DECAY_DATE":null,"TLE_LINE1":"1 51758U 22016AW  22086.91668981 -.00045486  00000-0 -32052-3 0  9997","TLE_LINE2":"2 51758  53.2177 329.7008 0001008  73.1543 168.7477 15.73266330  3700","MEAN_ANOMALY":"168.7477","SEMIMAJOR_AXIS":"6727.706","MEAN_MOTION_DDOT":"0.0000000000000","ARG_OF_PERICENTER":"73.1543","FILE":"3377053","LAUNCH_DATE":"2022-02-21","OBJECT_TYPE":"PAYLOAD","RCS_SIZE":"LARGE","EPOCH":"2022-03-27T22:00:01.999584","NORAD_CAT_ID":"51758","TIME_SYSTEM":"UTC","OBJECT_ID":"2022-016AW","PERIAPSIS":"348.893","RA_OF_ASC_NODE":"329.7008","REF_FRAME":"TEME","ECCENTRICITY":"0.00010080","REV_AT_EPOCH":"370","OBJECT_NAME":"STARLINK-3458","MEAN_MOTION_DOT":"-0.00045486","ELEMENT_SET_NO":"999","PERIOD":"91.529","MEAN_ELEMENT_THEORY":"SGP4","CENTER_NAME":"EARTH","COUNTRY_CODE":"US","MEAN_MOTION":"15.73266330","GP_ID":"199866592","INCLINATION":"53.2177","CLASSIFICATION_TYPE":"U"},{"CLASSIFICATION_TYPE":"U","GP_ID":"199866483","MEAN_MOTION":"15.73212907","INCLINATION":"53.2172","CENTER_NAME":"EARTH","COUNTRY_CODE":"US","MEAN_MOTION_DOT":"-0.00003753","PERIOD":"91.532","MEAN_ELEMENT_THEORY":"SGP4","ELEMENT_SET_NO":"999","REV_AT_EPOCH":"370","OBJECT_NAME":"STARLINK-3456","PERIAPSIS":"349.000","REF_FRAME":"TEME","RA_OF_ASC_NODE":"329.6980","ECCENTRICITY":"0.00010750","OBJECT_ID":"2022-016AX","EPOCH":"2022-03-27T22:00:01.999584","RCS_SIZE":"LARGE","TIME_SYSTEM":"UTC","NORAD_CAT_ID":"51759","LAUNCH_DATE":"2022-02-21","OBJECT_TYPE":"PAYLOAD","FILE":"3377053","ARG_OF_PERICENTER":"84.0961","MEAN_MOTION_DDOT":"0.0000000000000","DECAY_DATE":null,"BSTAR":"-0.00002232600000","SEMIMAJOR_AXIS":"6727.858","TLE_LINE1":"1 51759U 22016AX  22086.91668981 -.00003753  00000-0 -22326-4 0  9993","TLE_LINE2":"2 51759  53.2172 329.6980 0001075  84.0961 158.5159 15.73212907  3708","MEAN_ANOMALY":"158.5159","EPHEMERIS_TYPE":"0","SITE":"AFETR","APOAPSIS":"350.447"},{"CLASSIFICATION_TYPE":"U","GP_ID":"199866784","MEAN_MOTION":"15.73260153","INCLINATION":"53.2183","CENTER_NAME":"EARTH","COUNTRY_CODE":"US","MEAN_MOTION_DOT":"-0.00082604","MEAN_ELEMENT_THEORY":"SGP4","PERIOD":"91.530","ELEMENT_SET_NO":"999","REV_AT_EPOCH":"369","OBJECT_NAME":"STARLINK-3622","PERIAPSIS":"348.848","RA_OF_ASC_NODE":"353.8023","REF_FRAME":"TEME","ECCENTRICITY":"0.00011010","OBJECT_ID":"2022-017A","RCS_SIZE":"LARGE","EPOCH":"2022-03-27T22:00:01.999584","TIME_SYSTEM":"UTC","NORAD_CAT_ID":"51768","LAUNCH_DATE":"2022-02-25","OBJECT_TYPE":"PAYLOAD","FILE":"3377053","ARG_OF_PERICENTER":"62.8087","MEAN_MOTION_DDOT":"0.0000000000000","DECAY_DATE":null,"BSTAR":"-0.00058842000000","SEMIMAJOR_AXIS":"6727.724","TLE_LINE2":"2 51768  53.2183 353.8023 0001101  62.8087 100.5585 15.73260153  3694","TLE_LINE1":"1 51768U 22017A   22086.91668981 -.00082604  00000-0 -58842-3 0  9997","MEAN_ANOMALY":"100.5585","EPHEMERIS_TYPE":"0","SITE":"AFWTR","APOAPSIS":"350.329"},{"FILE":"3377053","ARG_OF_PERICENTER":"69.7303","LAUNCH_DATE":"2022-02-25","OBJECT_TYPE":"PAYLOAD","RCS_SIZE":"LARGE","EPOCH":"2022-03-27T22:00:01.999584","TIME_SYSTEM":"UTC","NORAD_CAT_ID":"51769","OBJECT_ID":"2022-017B","SITE":"AFWTR","APOAPSIS":"350.465","EPHEMERIS_TYPE":"0","DECAY_DATE":null,"BSTAR":"0.00006601000000","SEMIMAJOR_AXIS":"6727.870","TLE_LINE2":"2 51769  53.2180 353.7994 0001085  69.7303  94.8876 15.73208706  3690","TLE_LINE1":"1 51769U 22017B   22086.91668981  .00008657  00000-0  66010-4 0  9999","MEAN_ANOMALY":"94.8876","MEAN_MOTION_DDOT":"0.0000000000000","CLASSIFICATION_TYPE":"U","REV_AT_EPOCH":"369","OBJECT_NAME":"STARLINK-3621","REF_FRAME":"TEME","PERIAPSIS":"349.005","RA_OF_ASC_NODE":"353.7994","ECCENTRICITY":"0.00010850","MEAN_MOTION_DOT":"0.00008657","MEAN_ELEMENT_THEORY":"SGP4","PERIOD":"91.533","ELEMENT_SET_NO":"999","CENTER_NAME":"EARTH","COUNTRY_CODE":"US","GP_ID":"199866032","MEAN_MOTION":"15.73208706","INCLINATION":"53.2180"},{"OBJECT_ID":"2022-017C","RCS_SIZE":"LARGE","EPOCH":"2022-03-27T22:00:01.999584","NORAD_CAT_ID":"51770","TIME_SYSTEM":"UTC","LAUNCH_DATE":"2022-02-25","OBJECT_TYPE":"PAYLOAD","ARG_OF_PERICENTER":"76.7335","FILE":"3377053","MEAN_MOTION_DDOT":"0.0000000000000","BSTAR":"0.00003532500000","DECAY_DATE":null,"TLE_LINE1":"1 51770U 22017C   22086.91668981  .00004342  00000-0  35325-4 0  9993","TLE_LINE2":"2 51770  53.2161 353.8000 0000986  76.7335  87.2344 15.73207803  3695","MEAN_ANOMALY":"87.2344","SEMIMAJOR_AXIS":"6727.873","EPHEMERIS_TYPE":"0","APOAPSIS":"350.401","SITE":"AFWTR","CLASSIFICATION_TYPE":"U","MEAN_MOTION":"15.73207803","GP_ID":"199866593","INCLINATION":"53.2161","COUNTRY_CODE":"US","CENTER_NAME":"EARTH","MEAN_MOTION_DOT":"0.00004342","ELEMENT_SET_NO":"999","MEAN_ELEMENT_THEORY":"SGP4","PERIOD":"91.533","REF_FRAME":"TEME","PERIAPSIS":"349.075","RA_OF_ASC_NODE":"353.8000","ECCENTRICITY":"0.00009860","OBJECT_NAME":"STARLINK-3612","REV_AT_EPOCH":"369"},{"MEAN_ELEMENT_THEORY":"SGP4","PERIOD":"91.532","ELEMENT_SET_NO":"999","MEAN_MOTION_DOT":"-0.00037186","OBJECT_NAME":"STARLINK-3614","REV_AT_EPOCH":"369","PERIAPSIS":"348.715","ECCENTRICITY":"0.00014640","RA_OF_ASC_NODE":"353.7978","REF_FRAME":"TEME","INCLINATION":"53.2163","GP_ID":"199866484","MEAN_MOTION":"15.73221158","COUNTRY_CODE":"US","CENTER_NAME":"EARTH","CLASSIFICATION_TYPE":"U","EPHEMERIS_TYPE":"0","APOAPSIS":"350.685","SITE":"AFWTR","MEAN_MOTION_DDOT":"0.0000000000000","SEMIMAJOR_AXIS":"6727.835","MEAN_ANOMALY":"93.6461","TLE_LINE2":"2 51771  53.2163 353.7978 0001464  71.6031  93.6461 15.73221158  3690","TLE_LINE1":"1 51771U 22017D   22086.91668981 -.00037186  00000-0 -26146-3 0  9998","DECAY_DATE":null,"BSTAR":"-0.00026146000000","OBJECT_TYPE":"PAYLOAD","LAUNCH_DATE":"2022-02-25","FILE":"3377053","ARG_OF_PERICENTER":"71.6031","OBJECT_ID":"2022-017D","TIME_SYSTEM":"UTC","NORAD_CAT_ID":"51771","EPOCH":"2022-03-27T22:00:01.999584","RCS_SIZE":"LARGE"},{"GP_ID":"199866689","MEAN_MOTION":"15.73264343","INCLINATION":"53.2170","COUNTRY_CODE":"US","CENTER_NAME":"EARTH","MEAN_MOTION_DOT":"-0.00060767","MEAN_ELEMENT_THEORY":"SGP4","PERIOD":"91.529","ELEMENT_SET_NO":"999","REV_AT_EPOCH":"369","OBJECT_NAME":"STARLINK-3623","PERIAPSIS":"348.740","RA_OF_ASC_NODE":"353.7934","ECCENTRICITY":"0.00012430","REF_FRAME":"TEME","CLASSIFICATION_TYPE":"U","MEAN_MOTION_DDOT":"0.0000000000000","DECAY_DATE":null,"BSTAR":"-0.00043049000000","SEMIMAJOR_AXIS":"6727.712","TLE_LINE2":"2 51772  53.2170 353.7934 0001243  75.1881  92.0361 15.73264343  3693","MEAN_ANOMALY":"92.0361","TLE_LINE1":"1 51772U 22017E   22086.91668981 -.00060767  00000-0 -43049-3 0  9991","EPHEMERIS_TYPE":"0","SITE":"AFWTR","APOAPSIS":"350.413","OBJECT_ID":"2022-017E","RCS_SIZE":"LARGE","EPOCH":"2022-03-27T22:00:01.999584","TIME_SYSTEM":"UTC","NORAD_CAT_ID":"51772","LAUNCH_DATE":"2022-02-25","OBJECT_TYPE":"PAYLOAD","FILE":"3377053","ARG_OF_PERICENTER":"75.1881"},{"OBJECT_ID":"2022-017F","EPOCH":"2022-03-27T22:00:01.999584","RCS_SIZE":"LARGE","TIME_SYSTEM":"UTC","NORAD_CAT_ID":"51773","LAUNCH_DATE":"2022-02-25","OBJECT_TYPE":"PAYLOAD","ARG_OF_PERICENTER":"77.7812","FILE":"3377053","MEAN_MOTION_DDOT":"0.0000000000000","DECAY_DATE":null,"BSTAR":"-0.00094486000000","SEMIMAJOR_AXIS":"6727.807","TLE_LINE2":"2 51773  53.2182 353.7970 0001313  77.7812  88.1099 15.73230790  3690","MEAN_ANOMALY":"88.1099","TLE_LINE1":"1 51773U 22017F   22086.91668981 -.00131347  00000-0 -94486-3 0  9996","EPHEMERIS_TYPE":"0","SITE":"AFWTR","APOAPSIS":"350.556","CLASSIFICATION_TYPE":"U","GP_ID":"199866375","MEAN_MOTION":"15.73230790","INCLINATION":"53.2182","CENTER_NAME":"EARTH","COUNTRY_CODE":"US","MEAN_MOTION_DOT":"-0.00131347","MEAN_ELEMENT_THEORY":"SGP4","PERIOD":"91.531","ELEMENT_SET_NO":"999","OBJECT_NAME":"STARLINK-3624","REV_AT_EPOCH":"369","RA_OF_ASC_NODE":"353.7970","PERIAPSIS":"348.789","REF_FRAME":"TEME","ECCENTRICITY":"0.00013130"},{"CLASSIFICATION_TYPE":"U","COUNTRY_CODE":"US","CENTER_NAME":"EARTH","INCLINATION":"53.2165","MEAN_MOTION":"15.73189281","GP_ID":"199866252","ECCENTRICITY":"0.00013520","PERIAPSIS":"348.881","RA_OF_ASC_NODE":"353.7907","REF_FRAME":"TEME","OBJECT_NAME":"STARLINK-3629","REV_AT_EPOCH":"369","ELEMENT_SET_NO":"999","MEAN_ELEMENT_THEORY":"SGP4","PERIOD":"91.534","MEAN_MOTION_DOT":"0.00004360","NORAD_CAT_ID":"51774","TIME_SYSTEM":"UTC","RCS_SIZE":"LARGE","EPOCH":"2022-03-27T22:00:01.999584","OBJECT_ID":"2022-017G","ARG_OF_PERICENTER":"85.3270","FILE":"3377053","OBJECT_TYPE":"PAYLOAD","LAUNCH_DATE":"2022-02-25","TLE_LINE2":"2 51774  53.2165 353.7907 0001352  85.3270  83.1171 15.73189281  3692","TLE_LINE1":"1 51774U 22017G   22086.91668981  .00004360  00000-0  35483-4 0  9992","MEAN_ANOMALY":"83.1171","SEMIMAJOR_AXIS":"6727.926","BSTAR":"0.00003548300000","DECAY_DATE":null,"MEAN_MOTION_DDOT":"0.0000000000000","SITE":"AFWTR","APOAPSIS":"350.700","EPHEMERIS_TYPE":"0"}];
